KAZSTSAT                
1 43783U 18099AB  26068.61895971  .00001354  00000+0  11446-3 0  9991
2 43783  97.4396 105.0128 0006528  11.1145 349.0222 14.99620503396386
STARLINK-5990           
1 56448U 23064A   26068.21767921  .00027357  00000+0  22775-2 0  9997
2 56448  70.0007 145.7196 0004516 261.0003  99.0646 14.98564845155171
